STARLINK-2022           
1 47643U 21012Z   23207.63193775  .00025450  00000+0  17200-2 0  9992
2 47643  53.0549  28.0233 0001218  80.0289 280.0837 15.06428158135499
